<?xml version="1.0" encoding="UTF-8"?>
<ndm xmlns:xsi="http://www.w3.org/2001/XMLSchema-instance" xsi:noNamespaceSchemaLocation="https://sanaregistry.org/r/ndmxml_unqualified/ndmxml-2.0.0-master-2.0.xsd">
<omm id="CCSDS_OMM_VERS" version="2.0">
<header><CREATION_DATE/><ORIGINATOR/></header><body><segment><metadata><OBJECT_NAME>ORBCOMM FM05</OBJECT_NAME><OBJECT_ID>1997-084F</OBJECT_ID><CENTER_NAME>EARTH</CENTER_NAME><REF_FRAME>TEME</REF_FRAME><TIME_SYSTEM>UTC</TIME_SYSTEM><MEAN_ELEMENT_THEORY>SGP4</MEAN_ELEMENT_THEORY></metadata><data><meanElements><EPOCH>2024-07-27T05:17:43.680480</EPOCH><MEAN_MOTION>14.43142306</MEAN_MOTION><ECCENTRICITY>.0003373</ECCENTRICITY><INCLINATION>45.0148</INCLINATION><RA_OF_ASC_NODE>125.3652</RA_OF_ASC_NODE><ARG_OF_PERICENTER>23.6595</ARG_OF_PERICENTER><MEAN_ANOMALY>336.4410</MEAN_ANOMALY></meanElements><tleParameters><EPHEMERIS_TYPE>0</EPHEMERIS_TYPE><CLASSIFICATION_TYPE>U</CLASSIFICATION_TYPE><NORAD_CAT_ID>25117</NORAD_CAT_ID><ELEMENT_SET_NO>999</ELEMENT_SET_NO><REV_AT_EPOCH>39361</REV_AT_EPOCH><BSTAR>.75285E-3</BSTAR><MEAN_MOTION_DOT>.2409E-4</MEAN_MOTION_DOT><MEAN_MOTION_DDOT>0</MEAN_MOTION_DDOT></tleParameters></data></segment></body></omm>
<omm id="CCSDS_OMM_VERS" version="2.0">
<header><CREATION_DATE/><ORIGINATOR/></header><body><segment><metadata><OBJECT_NAME>ORBCOMM FM06</OBJECT_NAME><OBJECT_ID>1997-084G</OBJECT_ID><CENTER_NAME>EARTH</CENTER_NAME><REF_FRAME>TEME</REF_FRAME><TIME_SYSTEM>UTC</TIME_SYSTEM><MEAN_ELEMENT_THEORY>SGP4</MEAN_ELEMENT_THEORY></metadata><data><meanElements><EPOCH>2024-07-27T19:16:28.471584</EPOCH><MEAN_MOTION>14.43243978</MEAN_MOTION><ECCENTRICITY>.0002482</ECCENTRICITY><INCLINATION>45.0140</INCLINATION><RA_OF_ASC_NODE>122.7019</RA_OF_ASC_NODE><ARG_OF_PERICENTER>35.3934</ARG_OF_PERICENTER><MEAN_ANOMALY>346.9914</MEAN_ANOMALY></meanElements><tleParameters><EPHEMERIS_TYPE>0</EPHEMERIS_TYPE><CLASSIFICATION_TYPE>U</CLASSIFICATION_TYPE><NORAD_CAT_ID>25118</NORAD_CAT_ID><ELEMENT_SET_NO>999</ELEMENT_SET_NO><REV_AT_EPOCH>39461</REV_AT_EPOCH><BSTAR>.84436E-3</BSTAR><MEAN_MOTION_DOT>.2725E-4</MEAN_MOTION_DOT><MEAN_MOTION_DDOT>0</MEAN_MOTION_DDOT></tleParameters></data></segment></body></omm>
<omm id="CCSDS_OMM_VERS" version="2.0">
<header><CREATION_DATE/><ORIGINATOR/></header><body><segment><metadata><OBJECT_NAME>ORBCOMM FM07</OBJECT_NAME><OBJECT_ID>1997-084H</OBJECT_ID><CENTER_NAME>EARTH</CENTER_NAME><REF_FRAME>TEME</REF_FRAME><TIME_SYSTEM>UTC</TIME_SYSTEM><MEAN_ELEMENT_THEORY>SGP4</MEAN_ELEMENT_THEORY></metadata><data><meanElements><EPOCH>2024-07-27T20:44:37.379328</EPOCH><MEAN_MOTION>14.43141725</MEAN_MOTION><ECCENTRICITY>.0004056</ECCENTRICITY><INCLINATION>45.0136</INCLINATION><RA_OF_ASC_NODE>122.9986</RA_OF_ASC_NODE><ARG_OF_PERICENTER>20.3409</ARG_OF_PERICENTER><MEAN_ANOMALY>339.7602</MEAN_ANOMALY></meanElements><tleParameters><EPHEMERIS_TYPE>0</EPHEMERIS_TYPE><CLASSIFICATION_TYPE>U</CLASSIFICATION_TYPE><NORAD_CAT_ID>25119</NORAD_CAT_ID><ELEMENT_SET_NO>999</ELEMENT_SET_NO><REV_AT_EPOCH>39461</REV_AT_EPOCH><BSTAR>.78425E-3</BSTAR><MEAN_MOTION_DOT>.2516E-4</MEAN_MOTION_DOT><MEAN_MOTION_DDOT>0</MEAN_MOTION_DDOT></tleParameters></data></segment></body></omm>
<omm id="CCSDS_OMM_VERS" version="2.0">
<header><CREATION_DATE/><ORIGINATOR/></header><body><segment><metadata><OBJECT_NAME>ORBCOMM FM03</OBJECT_NAME><OBJECT_ID>1998-007B</OBJECT_ID><CENTER_NAME>EARTH</CENTER_NAME><REF_FRAME>TEME</REF_FRAME><TIME_SYSTEM>UTC</TIME_SYSTEM><MEAN_ELEMENT_THEORY>SGP4</MEAN_ELEMENT_THEORY></metadata><data><meanElements><EPOCH>2024-07-27T21:07:08.270976</EPOCH><MEAN_MOTION>14.32500036</MEAN_MOTION><ECCENTRICITY>.004546</ECCENTRICITY><INCLINATION>107.9710</INCLINATION><RA_OF_ASC_NODE>190.2014</RA_OF_ASC_NODE><ARG_OF_PERICENTER>94.9389</ARG_OF_PERICENTER><MEAN_ANOMALY>265.6942</MEAN_ANOMALY></meanElements><tleParameters><EPHEMERIS_TYPE>0</EPHEMERIS_TYPE><CLASSIFICATION_TYPE>U</CLASSIFICATION_TYPE><NORAD_CAT_ID>25158</NORAD_CAT_ID><ELEMENT_SET_NO>999</ELEMENT_SET_NO><REV_AT_EPOCH>37756</REV_AT_EPOCH><BSTAR>.78287E-3</BSTAR><MEAN_MOTION_DOT>.2019E-4</MEAN_MOTION_DOT><MEAN_MOTION_DDOT>0</MEAN_MOTION_DDOT></tleParameters></data></segment></body></omm>
<omm id="CCSDS_OMM_VERS" version="2.0">
<header><CREATION_DATE/><ORIGINATOR/></header><body><segment><metadata><OBJECT_NAME>ORBCOMM FM04</OBJECT_NAME><OBJECT_ID>1998-007C</OBJECT_ID><CENTER_NAME>EARTH</CENTER_NAME><REF_FRAME>TEME</REF_FRAME><TIME_SYSTEM>UTC</TIME_SYSTEM><MEAN_ELEMENT_THEORY>SGP4</MEAN_ELEMENT_THEORY></metadata><data><meanElements><EPOCH>2024-07-27T20:29:35.759040</EPOCH><MEAN_MOTION>14.32769844</MEAN_MOTION><ECCENTRICITY>.0041081</ECCENTRICITY><INCLINATION>107.9696</INCLINATION><RA_OF_ASC_NODE>193.1404</RA_OF_ASC_NODE><ARG_OF_PERICENTER>92.5954</ARG_OF_PERICENTER><MEAN_ANOMALY>267.9889</MEAN_ANOMALY></meanElements><tleParameters><EPHEMERIS_TYPE>0</EPHEMERIS_TYPE><CLASSIFICATION_TYPE>U</CLASSIFICATION_TYPE><NORAD_CAT_ID>25159</NORAD_CAT_ID><ELEMENT_SET_NO>999</ELEMENT_SET_NO><REV_AT_EPOCH>37773</REV_AT_EPOCH><BSTAR>.76294E-3</BSTAR><MEAN_MOTION_DOT>.1971E-4</MEAN_MOTION_DOT><MEAN_MOTION_DDOT>0</MEAN_MOTION_DDOT></tleParameters></data></segment></body></omm>
<omm id="CCSDS_OMM_VERS" version="2.0">
<header><CREATION_DATE/><ORIGINATOR/></header><body><segment><metadata><OBJECT_NAME>ORBCOMM FM17</OBJECT_NAME><OBJECT_ID>1998-046A</OBJECT_ID><CENTER_NAME>EARTH</CENTER_NAME><REF_FRAME>TEME</REF_FRAME><TIME_SYSTEM>UTC</TIME_SYSTEM><MEAN_ELEMENT_THEORY>SGP4</MEAN_ELEMENT_THEORY></metadata><data><meanElements><EPOCH>2024-07-27T16:44:35.801376</EPOCH><MEAN_MOTION>14.33422186</MEAN_MOTION><ECCENTRICITY>.0000606</ECCENTRICITY><INCLINATION>44.9963</INCLINATION><RA_OF_ASC_NODE>347.2832</RA_OF_ASC_NODE><ARG_OF_PERICENTER>24.4629</ARG_OF_PERICENTER><MEAN_ANOMALY>335.6246</MEAN_ANOMALY></meanElements><tleParameters><EPHEMERIS_TYPE>0</EPHEMERIS_TYPE><CLASSIFICATION_TYPE>U</CLASSIFICATION_TYPE><NORAD_CAT_ID>25413</NORAD_CAT_ID><ELEMENT_SET_NO>999</ELEMENT_SET_NO><REV_AT_EPOCH>35658</REV_AT_EPOCH><BSTAR>.54848E-3</BSTAR><MEAN_MOTION_DOT>.1387E-4</MEAN_MOTION_DOT><MEAN_MOTION_DDOT>0</MEAN_MOTION_DDOT></tleParameters></data></segment></body></omm>
<omm id="CCSDS_OMM_VERS" version="2.0">
<header><CREATION_DATE/><ORIGINATOR/></header><body><segment><metadata><OBJECT_NAME>ORBCOMM FM18</OBJECT_NAME><OBJECT_ID>1998-046B</OBJECT_ID><CENTER_NAME>EARTH</CENTER_NAME><REF_FRAME>TEME</REF_FRAME><TIME_SYSTEM>UTC</TIME_SYSTEM><MEAN_ELEMENT_THEORY>SGP4</MEAN_ELEMENT_THEORY></metadata><data><meanElements><EPOCH>2024-07-27T14:36:04.037184</EPOCH><MEAN_MOTION>14.36280538</MEAN_MOTION><ECCENTRICITY>.000164</ECCENTRICITY><INCLINATION>44.9937</INCLINATION><RA_OF_ASC_NODE>273.1099</RA_OF_ASC_NODE><ARG_OF_PERICENTER>93.6055</ARG_OF_PERICENTER><MEAN_ANOMALY>266.4980</MEAN_ANOMALY></meanElements><tleParameters><EPHEMERIS_TYPE>0</EPHEMERIS_TYPE><CLASSIFICATION_TYPE>U</CLASSIFICATION_TYPE><NORAD_CAT_ID>25414</NORAD_CAT_ID><ELEMENT_SET_NO>999</ELEMENT_SET_NO><REV_AT_EPOCH>35754</REV_AT_EPOCH><BSTAR>.6124E-3</BSTAR><MEAN_MOTION_DOT>.1664E-4</MEAN_MOTION_DOT><MEAN_MOTION_DDOT>0</MEAN_MOTION_DDOT></tleParameters></data></segment></body></omm>
<omm id="CCSDS_OMM_VERS" version="2.0">
<header><CREATION_DATE/><ORIGINATOR/></header><body><segment><metadata><OBJECT_NAME>ORBCOMM FM19</OBJECT_NAME><OBJECT_ID>1998-046C</OBJECT_ID><CENTER_NAME>EARTH</CENTER_NAME><REF_FRAME>TEME</REF_FRAME><TIME_SYSTEM>UTC</TIME_SYSTEM><MEAN_ELEMENT_THEORY>SGP4</MEAN_ELEMENT_THEORY></metadata><data><meanElements><EPOCH>2024-07-27T14:43:11.106336</EPOCH><MEAN_MOTION>14.36112999</MEAN_MOTION><ECCENTRICITY>.000042</ECCENTRICITY><INCLINATION>44.9938</INCLINATION><RA_OF_ASC_NODE>274.6037</RA_OF_ASC_NODE><ARG_OF_PERICENTER>61.7209</ARG_OF_PERICENTER><MEAN_ANOMALY>92.4539</MEAN_ANOMALY></meanElements><tleParameters><EPHEMERIS_TYPE>0</EPHEMERIS_TYPE><CLASSIFICATION_TYPE>U</CLASSIFICATION_TYPE><NORAD_CAT_ID>25415</NORAD_CAT_ID><ELEMENT_SET_NO>999</ELEMENT_SET_NO><REV_AT_EPOCH>35750</REV_AT_EPOCH><BSTAR>.63726E-3</BSTAR><MEAN_MOTION_DOT>.1731E-4</MEAN_MOTION_DOT><MEAN_MOTION_DDOT>0</MEAN_MOTION_DDOT></tleParameters></data></segment></body></omm>

</ndm>
