ORBCOMM FM05            
1 25117U 97084F   24209.22064445  .00002409  00000+0  75285-3 0  9992
2 25117  45.0148 125.3652 0003373  23.6595 336.4410 14.43142306393611
ORBCOMM FM06            
1 25118U 97084G   24209.80310731  .00002725  00000+0  84436-3 0  9998
2 25118  45.0140 122.7019 0002482  35.3934 346.9914 14.43243978394612
ORBCOMM FM07            
1 25119U 97084H   24209.86432152  .00002516  00000+0  78425-3 0  9996
2 25119  45.0136 122.9986 0004056  20.3409 339.7602 14.43141725394614
ORBCOMM FM03            
1 25158U 98007B   24209.87995684  .00002019  00000+0  78287-3 0  9994
2 25158 107.9710 190.2014 0045460  94.9389 265.6942 14.32500036377562
ORBCOMM FM04            
1 25159U 98007C   24209.85388610  .00001971  00000+0  76294-3 0  9990
2 25159 107.9696 193.1404 0041081  92.5954 267.9889 14.32769844377736
ORBCOMM FM17            
1 25413U 98046A   24209.69763659  .00001387  00000+0  54848-3 0  9990
2 25413  44.9963 347.2832 0000606  24.4629 335.6246 14.33422186356580
ORBCOMM FM18            
1 25414U 98046B   24209.60838006  .00001664  00000+0  61240-3 0  9993
2 25414  44.9937 273.1099 0001640  93.6055 266.4980 14.36280538357543
ORBCOMM FM19            
1 25415U 98046C   24209.61332299  .00001731  00000+0  63726-3 0  9994
2 25415  44.9938 274.6037 0000420  61.7209  92.4539 14.36112999357503
